{"type": "FeatureCollection", "features": [ {"type": "Feature", "properties": {"norad_id": 66989, "name": "CZ-4B R/B", "group": "last-30-days", "lat": -61.91397483899443, "lon": -128.7458986550778, "alt_km": 335.6884676677437, "timestamp": "2025-12-25T07:41:08.451517+00:00", "meta": {"OBJECT_NAME": "CZ-4B R/B", "OBJECT_ID": "2025-289B", "EPOCH": "2025-12-24T21:28:00.911136", "MEAN_MOTION": 15.70180887, "ECCENTRICITY": 0.01396927, "INCLINATION": 97.5229, "RA_OF_ASC_NODE": 65.1345, "ARG_OF_PERICENTER": 316.8099, "MEAN_ANOMALY": 42.2272, "EPHEMERIS_TYPE": 0, "CLASSIFICATION_TYPE": "U", "NORAD_CAT_ID": 66989, "ELEMENT_SET_NO": 999, "REV_AT_EPOCH": 247, "BSTAR": 0.00061213061, "MEAN_MOTION_DOT": 0.00131632, "MEAN_MOTION_DDOT": 7.305834e-06}, "tle": {"line1": "1 66989U 25289B   25358.89445499  .00131632  73058-5  61213-3 0  9999", "line2": "2 66989  97.5229  65.1345 0139692 316.8099  42.2272 15.70180887  2471"}}, "geometry": {"type": "Point", "coordinates": [-128.7458986550778, -61.91397483899443]}}, {"type": "Feature", "properties": {"norad_id": 66990, "name": "TJS-22", "group": "last-30-days", "lat": -0.33363190836064316, "lon": -84.1826478291544, "alt_km": 35771.89621836022, "timestamp": "2025-12-25T07:41:08.451529+00:00", "meta": {"OBJECT_NAME": "TJS-22", "OBJECT_ID": "2025-290A", "EPOCH": "2025-12-24T08:24:23.626080", "MEAN_MOTION": 1.00271403, "ECCENTRICITY": 0.00034063, "INCLINATION": 1.9593, "RA_OF_ASC_NODE": 285.0352, "ARG_OF_PERICENTER": 343.0889, "MEAN_ANOMALY": 17.5508, "EPHEMERIS_TYPE": 0, "CLASSIFICATION_TYPE": "U", "NORAD_CAT_ID": 66990, "ELEMENT_SET_NO": 999, "REV_AT_EPOCH": 27, "BSTAR": 0, "MEAN_MOTION_DOT": 1.5e-07, "MEAN_MOTION_DDOT": 0}, "tle": {"line1": "1 66990U 25290A   25358.35027345  .00000015  00000+0  00000+0 0  9994", "line2": "2 66990   1.9593 285.0352 0003406 343.0889  17.5508  1.00271403   275"}}, "geometry": {"type": "Point", "coordinates": [-84.1826478291544, -0.33363190836064316]}}, {"type": "Feature", "properties": {"norad_id": 66991, "name": "CZ-3B R/B", "group": "last-30-days", "lat": -0.017632514325274667, "lon": -63.36122289206656, "alt_km": 33067.845913874335, "timestamp": "2025-12-25T07:41:08.451542+00:00", "meta": {"OBJECT_NAME": "CZ-3B R/B", "OBJECT_ID": "2025-290B", "EPOCH": "2025-12-15T17:23:33.043200", "MEAN_MOTION": 2.38388611, "ECCENTRICITY": 0.7240884, "INCLINATION": 28.4636, "RA_OF_ASC_NODE": 300.4666, "ARG_OF_PERICENTER": 182.7002, "MEAN_ANOMALY": 168.625, "EPHEMERIS_TYPE": 0, "CLASSIFICATION_TYPE": "U", "NORAD_CAT_ID": 66991, "ELEMENT_SET_NO": 999, "REV_AT_EPOCH": 16, "BSTAR": 0.00075879, "MEAN_MOTION_DOT": 0.00057911, "MEAN_MOTION_DDOT": -2.0514e-07}, "tle": {"line1": "1 66991U 25290B   25349.72468800  .00057911 -20514-6  75879-3 0  9998", "line2": "2 66991  28.4636 300.4666 7240884 182.7002 168.6250  2.38388611   165"}}, "geometry": {"type": "Point", "coordinates": [-63.36122289206656, -0.017632514325274667]}}, {"type": "Feature", "properties": {"norad_id": 66993, "name": "2025-292A", "group": "last-30-days", "lat": 53.13742526444101, "lon": 61.42212612644208, "alt_km": 557.8436721635726, "timestamp": "2025-12-25T07:41:08.451552+00:00", "meta": {"OBJECT_NAME": "2025-292A", "OBJECT_ID": "2025-292A", "EPOCH": "2025-12-24T21:52:11.568864", "MEAN_MOTION": 15.045834, "ECCENTRICITY": 0.00145652, "INCLINATION": 97.6497, "RA_OF_ASC_NODE": 71.3435, "ARG_OF_PERICENTER": 228.3806, "MEAN_ANOMALY": 131.6173, "EPHEMERIS_TYPE": 0, "CLASSIFICATION_TYPE": "U", "NORAD_CAT_ID": 66993, "ELEMENT_SET_NO": 999, "REV_AT_EPOCH": 222, "BSTAR": 0.00031620209, "MEAN_MOTION_DOT": 4.385e-05, "MEAN_MOTION_DDOT": 0}, "tle": {"line1": "1 66993U 25292A   25358.91124501  .00004385  00000+0  31620-3 0  9993", "line2": "2 66993  97.6497  71.3435 0014565 228.3806 131.6173 15.04583400  2228"}}, "geometry": {"type": "Point", "coordinates": [61.42212612644208, 53.13742526444101]}}, {"type": "Feature", "properties": {"norad_id": 66994, "name": "2025-292B", "group": "last-30-days", "lat": 55.50787636816072, "lon": 60.46878354251945, "alt_km": 557.1908295261846, "timestamp": "2025-12-25T07:41:08.451565+00:00", "meta": {"OBJECT_NAME": "2025-292B", "OBJECT_ID": "2025-292B", "EPOCH": "2025-12-24T21:51:33.840576", "MEAN_MOTION": 15.04631837, "ECCENTRICITY": 0.00143512, "INCLINATION": 97.6506, "RA_OF_ASC_NODE": 71.3455, "ARG_OF_PERICENTER": 228.7248, "MEAN_ANOMALY": 131.2743, "EPHEMERIS_TYPE": 0, "CLASSIFICATION_TYPE": "U", "NORAD_CAT_ID": 66994, "ELEMENT_SET_NO": 999, "REV_AT_EPOCH": 222, "BSTAR": 0.00035833392, "MEAN_MOTION_DOT": 4.984e-05, "MEAN_MOTION_DDOT": 0}, "tle": {"line1": "1 66994U 25292B   25358.91080834  .00004984  00000+0  35833-3 0  9999", "line2": "2 66994  97.6506  71.3455 0014351 228.7248 131.2743 15.04631837  2226"}}, "geometry": {"type": "Point", "coordinates": [60.46878354251945, 55.50787636816072]}}, {"type": "Feature", "properties": {"norad_id": 66995, "name": "2025-292C", "group": "last-30-days", "lat": 56.48010499110475, "lon": 60.04276083321385, "alt_km": 557.15251598964, "timestamp": "2025-12-25T07:41:08.451575+00:00", "meta": {"OBJECT_NAME": "2025-292C", "OBJECT_ID": "2025-292C", "EPOCH": "2025-12-24T21:51:18.566784", "MEAN_MOTION": 15.04664082, "ECCENTRICITY": 0.00146462, "INCLINATION": 97.6496, "RA_OF_ASC_NODE": 71.3442, "ARG_OF_PERICENTER": 229.0815, "MEAN_ANOMALY": 130.9143, "EPHEMERIS_TYPE": 0, "CLASSIFICATION_TYPE": "U", "NORAD_CAT_ID": 66995, "ELEMENT_SET_NO": 999, "REV_AT_EPOCH": 222, "BSTAR": 0.0004078832, "MEAN_MOTION_DOT": 5.688e-05, "MEAN_MOTION_DDOT": 0}, "tle": {"line1": "1 66995U 25292C   25358.91063156  .00005688  00000+0  40788-3 0  9995", "line2": "2 66995  97.6496  71.3442 0014646 229.0815 130.9143 15.04664082  2220"}}, "geometry": {"type": "Point", "coordinates": [60.04276083321385, 56.48010499110475]}}, {"type": "Feature", "properties": {"norad_id": 66996, "name": "2025-292D", "group": "last-30-days", "lat": 58.389158239613685, "lon": 59.13664312012112, "alt_km": 556.3037475026995, "timestamp": "2025-12-25T07:41:08.451585+00:00", "meta": {"OBJECT_NAME": "2025-292D", "OBJECT_ID": "2025-292D", "EPOCH": "2025-12-24T21:50:47.537088", "MEAN_MOTION": 15.04675873, "ECCENTRICITY": 0.00137646, "INCLINATION": 97.6492, "RA_OF_ASC_NODE": 71.3437, "ARG_OF_PERICENTER": 231.6337, "MEAN_ANOMALY": 128.3653, "EPHEMERIS_TYPE": 0, "CLASSIFICATION_TYPE": "U", "NORAD_CAT_ID": 66996, "ELEMENT_SET_NO": 999, "REV_AT_EPOCH": 222, "BSTAR": 0.00027926132, "MEAN_MOTION_DOT": 3.874e-05, "MEAN_MOTION_DDOT": 0}, "tle": {"line1": "1 66996U 25292D   25358.91027242  .00003874  00000+0  27926-3 0  9996", "line2": "2 66996  97.6492  71.3437 0013764 231.6337 128.3653 15.04675873  2226"}}, "geometry": {"type": "Point", "coordinates": [59.13664312012112, 58.389158239613685]}}, {"type": "Feature", "properties": {"norad_id": 66997, "name": "2025-292E", "group": "last-30-days", "lat": 62.76211510392192, "lon": 56.6170033805474, "alt_km": 555.6920052772139, "timestamp": "2025-12-25T07:41:08.451605+00:00", "meta": {"OBJECT_NAME": "2025-292E", "OBJECT_ID": "2025-292E", "EPOCH": "2025-12-24T21:49:37.021728", "MEAN_MOTION": 15.04766573, "ECCENTRICITY": 0.00141606, "INCLINATION": 97.6512, "RA_OF_ASC_NODE": 71.3484, "ARG_OF_PERICENTER": 232.6185, "MEAN_ANOMALY": 127.3752, "EPHEMERIS_TYPE": 0, "CLASSIFICATION_TYPE": "U", "NORAD_CAT_ID": 66997, "ELEMENT_SET_NO": 999, "REV_AT_EPOCH": 221, "BSTAR": 0.00032519144, "MEAN_MOTION_DOT": 4.533e-05, "MEAN_MOTION_DDOT": 0}, "tle": {"line1": "1 66997U 25292E   25358.90945627  .00004533  00000+0  32519-3 0  9999", "line2": "2 66997  97.6512  71.3484 0014160 232.6185 127.3752 15.04766573  2211"}}, "geometry": {"type": "Point", "coordinates": [56.6170033805474, 62.76211510392192]}}, {"type": "Feature", "properties": {"norad_id": 66998, "name": "2025-292F", "group": "last-30-days", "lat": 71.10568601604363, "lon": 48.62951734238868, "alt_km": 554.7074123749053, "timestamp": "2025-12-25T07:41:08.451617+00:00", "meta": {"OBJECT_NAME": "2025-292F", "OBJECT_ID": "2025-292F", "EPOCH": "2025-12-24T21:47:19.034880", "MEAN_MOTION": 15.04947893, "ECCENTRICITY": 0.00152765, "INCLINATION": 97.6531, "RA_OF_ASC_NODE": 71.3538, "ARG_OF_PERICENTER": 233.5606, "MEAN_ANOMALY": 126.4213, "EPHEMERIS_TYPE": 0, "CLASSIFICATION_TYPE": "U", "NORAD_CAT_ID": 66998, "ELEMENT_SET_NO": 999, "REV_AT_EPOCH": 222, "BSTAR": 0.00042963076, "MEAN_MOTION_DOT": 6.042e-05, "MEAN_MOTION_DDOT": 0}, "tle": {"line1": "1 66998U 25292F   25358.90785920  .00006042  00000+0  42963-3 0  9999", "line2": "2 66998  97.6531  71.3538 0015276 233.5606 126.4213 15.04947893  2229"}}, "geometry": {"type": "Point", "coordinates": [48.62951734238868, 71.10568601604363]}}, {"type": "Feature", "properties": {"norad_id": 66999, "name": "2025-292G", "group": "last-30-days", "lat": 74.20090246997012, "lon": 43.3884668053634, "alt_km": 553.8800255018823, "timestamp": "2025-12-25T07:41:08.451627+00:00", "meta": {"OBJECT_NAME": "2025-292G", "OBJECT_ID": "2025-292G", "EPOCH": "2025-12-24T21:46:25.351104", "MEAN_MOTION": 15.05011977, "ECCENTRICITY": 0.00147898, "INCLINATION": 97.654, "RA_OF_ASC_NODE": 71.3562, "ARG_OF_PERICENTER": 235.5442, "MEAN_ANOMALY": 124.4387, "EPHEMERIS_TYPE": 0, "CLASSIFICATION_TYPE": "U", "NORAD_CAT_ID": 66999, "ELEMENT_SET_NO": 999, "REV_AT_EPOCH": 222, "BSTAR": 0.00043420168, "MEAN_MOTION_DOT": 6.117e-05, "MEAN_MOTION_DDOT": 0}, "tle": {"line1": "1 66999U 25292G   25358.90723786  .00006117  00000+0  43420-3 0  9994", "line2": "2 66999  97.6540  71.3562 0014789 235.5442 124.4387 15.05011977  2221"}}, "geometry": {"type": "Point", "coordinates": [43.3884668053634, 74.20090246997012]}}]}